NORAD_CAT_ID,OBJECT_NAME,OBJECT_TYPE,EPOCH,MEAN_MOTION,ECCENTRICITY,INCLINATION,RA_OF_ASC_NODE,ARG_OF_PERICENTER,MEAN_ANOMALY,BSTAR,MEAN_MOTION_DOT,MEAN_MOTION_DDOT,TLE_LINE0,TLE_LINE1,TLE_LINE2,SEMIMAJOR_AXIS,PERIOD,APOGEE,PERIGEE,DECAYED
52669.0,STARLINK-3972,PAYLOAD,2023-01-27 20:02:20,15.08835714,0.0001069,53.214,217.6622,93.1838,266.9276,5.7663e-05,6.3e-06,0.0,0 STARLINK-3972,1 52669U 22053P   23027.83495995  .00000630  00000-0  57663-4 0  9996,2 52669  53.2140 217.6622 0001069  93.1838 266.9276 15.08835714 39416,6917.893,95.438,540.498,539.019,0.0
52669.0,STARLINK-3972,PAYLOAD,2023-01-28 13:31:34,15.08839747,0.00011,53.2148,214.3915,93.0509,267.0609,4.1483e-05,3.72e-06,0.0,0 STARLINK-3972,1 52669U 22053P   23028.56359822  .00000372  00000-0  41483-4 0  9991,2 52669  53.2148 214.3915 0001100  93.0509 267.0609 15.08839747 39527,6917.881,95.438,540.507,538.985,0.0
52669.0,STARLINK-3972,PAYLOAD,2023-01-28 18:17:44,15.08841266,0.0001119,53.2151,213.4995,92.3715,267.7405,5.0119e-05,5.1e-06,0.0,0 STARLINK-3972,1 52669U 22053P   23028.76231692  .00000510  00000-0  50119-4 0  9997,2 52669  53.2151 213.4995 0001119  92.3715 267.7405 15.08841266 39553,6917.877,95.437,540.516,538.967,0.0
52669.0,STARLINK-3972,PAYLOAD,2023-01-28 21:28:30,15.08844493,0.0001098,53.2145,212.904,88.745,271.3668,5.232e-05,5.45e-06,0.0,0 STARLINK-3972,1 52669U 22053P   23028.89479444  .00000545  00000-0  52320-4 0  9994,2 52669  53.2145 212.9040 0001098  88.7450 271.3668 15.08844493 39571,6917.867,95.437,540.491,538.972,0.0
52669.0,STARLINK-3972,PAYLOAD,2023-01-29 16:33:08,15.0882978,0.0001118,53.2142,209.3347,89.0799,271.0321,0.00011162,1.489e-05,0.0,0 STARLINK-3972,1 52669U 22053P   23029.68968314  .00001489  00000-0  11162-3 0  9997,2 52669  53.2142 209.3347 0001118  89.0799 271.0321 15.08829780 39699,6917.912,95.438,540.55,539.003,0.0
52669.0,STARLINK-3972,PAYLOAD,2023-01-29 18:08:31,15.08836828,0.0001073,53.2143,209.0373,87.1344,272.9771,1.2637e-05,-8.7e-07,0.0,0 STARLINK-3972,1 52669U 22053P   23029.75592105 -.00000087  00000-0  12637-4 0  9999,2 52669  53.2143 209.0373 0001073  87.1344 272.9771 15.08836828 39703,6917.89,95.438,540.497,539.013,0.0
52669.0,STARLINK-3972,PAYLOAD,2023-01-30 05:16:13,15.08839282,0.0001067,53.2145,206.9559,87.8008,272.3106,3.8512e-05,3.25e-06,0.0,0 STARLINK-3972,1 52669U 22053P   23030.21959896  .00000325  00000-0  38512-4 0  9990,2 52669  53.2145 206.9559 0001067  87.8008 272.3106 15.08839282 39774,6917.883,95.438,540.486,539.009,0.0
52669.0,STARLINK-3972,PAYLOAD,2023-01-30 11:37:46,15.08834021,0.0001095,53.2144,205.7662,88.4671,271.6447,0.00010538,1.389e-05,0.0,0 STARLINK-3972,1 52669U 22053P   23030.48456022  .00001389  00000-0  10538-3 0  9990,2 52669  53.2144 205.7662 0001095  88.4671 271.6447 15.08834021 39810,6917.899,95.438,540.521,539.006,0.0
52669.0,STARLINK-3972,PAYLOAD,2023-01-30 21:10:04,15.08844852,0.0001109,53.2144,203.9822,84.5656,275.5462,4.4354e-05,4.18e-06,0.0,0 STARLINK-3972,1 52669U 22053P   23030.88199453  .00000418  00000-0  44354-4 0  9992,2 52669  53.2144 203.9822 0001109  84.5656 275.5462 15.08844852 39873,6917.866,95.437,540.498,538.963,0.0
52669.0,STARLINK-3972,PAYLOAD,2023-01-31 11:28:33,15.08834971,0.0001154,53.2141,201.3065,79.3387,280.7735,3.8268e-05,3.21e-06,0.0,0 STARLINK-3972,1 52669U 22053P   23031.47816128  .00000321  00000-0  38268-4 0  9993,2 52669  53.2141 201.3065 0001154  79.3387 280.7735 15.08834971 39966,6917.896,95.438,540.559,538.962,0.0
52669.0,STARLINK-3972,PAYLOAD,2023-02-01 11:19:20,15.08839347,0.0001172,53.2122,196.8433,92.9663,267.1463,3.3714e-06,-2.34e-06,0.0,0 STARLINK-3972,1 52669U 22053P   23032.47175999 -.00000234  00000-0  33714-5 0  9994,2 52669  53.2122 196.8433 0001172  92.9663 267.1463 15.08839347 40118,6917.882,95.438,540.558,538.937,0.0
52669.0,STARLINK-3972,PAYLOAD,2023-02-02 03:13:11,15.08836509,8.96e-05,53.2147,193.871,88.1288,271.9807,4.5527e-05,4.37e-06,0.0,0 STARLINK-3972,1 52669U 22053P   23033.13416025  .00000437  00000-0  45527-4 0  9994,2 52669  53.2147 193.8710 0000896  88.1288 271.9807 15.08836509 40215,6917.891,95.438,540.376,539.136,0.0
52669.0,STARLINK-3972,PAYLOAD,2023-02-02 11:10:07,15.0883444,0.0001296,53.2162,192.3851,102.1368,257.9769,8.2822e-06,-1.56e-06,0.0,0 STARLINK-3972,1 52669U 22053P   23033.46536453 -.00000156  00000-0  82822-5 0  9997,2 52669  53.2162 192.3851 0001296 102.1368 257.9769 15.08834440 40261,6917.897,95.438,540.659,538.866,0.0
52669.0,STARLINK-3972,PAYLOAD,2023-02-03 11:00:54,15.08832202,0.0001076,53.2158,187.9244,94.0419,266.0696,1.2458e-05,-9e-07,0.0,0 STARLINK-3972,1 52669U 22053P   23034.45896850 -.00000090  00000-0  12458-4 0  9991,2 52669  53.2158 187.9244 0001076  94.0419 266.0696 15.08832202 40415,6917.904,95.438,540.514,539.025,0.0
52669.0,STARLINK-3972,PAYLOAD,2023-02-03 18:57:50,15.08841597,8.73e-05,53.2157,186.4375,78.3531,281.7559,1.7602e-05,-8e-08,0.0,0 STARLINK-3972,1 52669U 22053P   23034.79016282 -.00000008  00000-0  17602-4 0  9996,2 52669  53.2157 186.4375 0000873  78.3531 281.7559 15.08841597 40461,6917.876,95.437,540.344,539.137,0.0
52669.0,STARLINK-3972,PAYLOAD,2023-02-04 14:02:27,15.08839056,0.0001173,53.217,182.8698,91.6831,268.4296,8.9484e-05,1.137e-05,0.0,0 STARLINK-3972,1 52669U 22053P   23035.58504432  .00001137  00000-0  89484-4 0  9993,2 52669  53.2170 182.8698 0001173  91.6831 268.4296 15.08839056 40589,6917.883,95.438,540.56,538.937,0.0
52669.0,STARLINK-3972,PAYLOAD,2023-02-04 18:48:37,15.08842093,0.0001013,53.2153,181.9769,89.8857,270.2251,4.6586e-05,4.54e-06,0.0,0 STARLINK-3972,1 52669U 22053P   23035.78376281  .00000454  00000-0  46586-4 0  9991,2 52669  53.2153 181.9769 0001013  89.8857 270.2251 15.08842093 40610,6917.874,95.437,540.44,539.038,0.0
52669.0,STARLINK-3972,PAYLOAD,2023-02-05 02:45:34,15.08820394,0.0001075,53.2158,180.4903,93.7791,266.3324,-7.145e-05,-1.424e-05,0.0,0 STARLINK-3972,1 52669U 22053P   23036.11498289 -.00001424  00000-0 -71450-4 0  9990,2 52669  53.2158 180.4903 0001075  93.7791 266.3324 15.08820394 40660,6917.94,95.439,540.549,539.062,0.0
52669.0,STARLINK-3972,PAYLOAD,2023-02-05 13:53:17,15.08812992,0.0001265,53.2136,178.4078,92.4451,267.6686,-9.8665e-05,-1.857e-05,0.0,0 STARLINK-3972,1 52669U 22053P   23036.57867561 -.00001857  00000-0 -98665-4 0  9990,2 52669  53.2136 178.4078 0001265  92.4451 267.6686 15.08812992 40734,6917.963,95.439,540.703,538.953,0.0
52669.0,STARLINK-3972,PAYLOAD,2023-02-05 18:39:26,15.08818715,0.0001212,53.215,177.5161,92.5066,267.6065,-0.00011969,-2.191e-05,0.0,0 STARLINK-3972,1 52669U 22053P   23036.77739559 -.00002191  00000-0 -11969-3 0  9990,2 52669  53.2150 177.5161 0001212  92.5066 267.6065 15.08818715 40761,6917.945,95.439,540.649,538.972,0.0
52669.0,STARLINK-3972,PAYLOAD,2023-02-06 02:36:21,15.08832297,0.0001058,53.2161,176.0297,96.8629,263.2483,-9.0992e-07,-3.02e-06,0.0,0 STARLINK-3972,1 52669U 22053P   23037.10858531 -.00000302  00000-0 -90992-6 0  9998,2 52669  53.2161 176.0297 0001058  96.8629 263.2483 15.08832297 40810,6917.904,95.438,540.501,539.037,0.0
52669.0,STARLINK-3972,PAYLOAD,2023-02-06 13:44:02,15.08843608,5.32e-05,53.2168,173.9494,80.8598,279.2454,0.00010923,1.451e-05,0.0,0 STARLINK-3972,1 52669U 22053P   23037.57225480  .00001451  00000-0  10923-3 0  9997,2 52669  53.2168 173.9494 0000532  80.8598 279.2454 15.08843608 40886,6917.869,95.437,540.102,539.366,0.0
52669.0,STARLINK-3972,PAYLOAD,2023-02-06 18:30:11,15.08856565,0.000157,53.2157,173.0556,89.9244,270.1928,0.0001767,2.527e-05,0.0,0 STARLINK-3972,1 52669U 22053P   23037.77096551  .00002527  00000-0  17670-3 0  9995,2 52669  53.2157 173.0556 0001570  89.9244 270.1928 15.08856565 40911,6917.83,95.437,540.781,538.609,0.0
52669.0,STARLINK-3972,PAYLOAD,2023-02-06 20:05:33,15.08866454,9.84e-05,53.2148,172.7582,80.1188,279.9915,0.00023154,3.402e-05,0.0,0 STARLINK-3972,1 52669U 22053P   23037.83719645  .00003402  00000-0  23154-3 0  9995,2 52669  53.2148 172.7582 0000984  80.1188 279.9915 15.08866454 40926,6917.8,95.436,540.345,538.984,0.0
52669.0,STARLINK-3972,PAYLOAD,2023-02-07 11:59:26,15.08844298,0.0001289,53.215,169.7848,91.6451,268.4689,0.00037267,5.649e-05,0.0,0 STARLINK-3972,1 52669U 22053P   23038.49960947  .00005649  00000-0  37267-3 0  9996,2 52669  53.2150 169.7848 0001289  91.6451 268.4689 15.08844298 41024,6917.867,95.437,540.624,538.841,0.0
52669.0,STARLINK-3972,PAYLOAD,2023-02-07 13:34:49,15.08848513,0.0001345,53.2161,169.4879,81.0817,279.0327,0.00043234,6.601e-05,0.0,0 STARLINK-3972,1 52669U 22053P   23038.56584929  .00006601  00000-0  43234-3 0  9996,2 52669  53.2161 169.4879 0001345  81.0817 279.0327 15.08848513 41031,6917.854,95.437,540.65,538.789,0.0
52669.0,STARLINK-3972,PAYLOAD,2023-02-07 15:10:12,15.08867227,0.0001404,53.2165,169.1872,113.5278,246.5862,0.00053265,8.206e-05,0.0,0 STARLINK-3972,1 52669U 22053P   23038.63208553  .00008206  00000-0  53265-3 0  9998,2 52669  53.2165 169.1872 0001404 113.5278 246.5862 15.08867227 41040,6917.797,95.436,540.633,538.691,0.0
52669.0,STARLINK-3972,PAYLOAD,2023-02-07 19:56:20,15.08879787,0.0001094,53.2152,168.2957,93.5766,266.5351,0.0006944,0.00010793,0.0,0 STARLINK-3972,1 52669U 22053P   23038.83079773  .00010793  00000-0  69440-3 0  9996,2 52669  53.2152 168.2957 0001094  93.5766 266.5351 15.08879787 41076,6917.759,95.435,540.381,538.867,0.0
52669.0,STARLINK-3972,PAYLOAD,2023-02-08 11:50:13,15.08847824,0.0001463,53.2146,165.3222,105.2849,254.8305,-0.00010765,-2.001e-05,0.0,0 STARLINK-3972,1 52669U 22053P   23039.49321125 -.00002001  00000-0 -10765-3 0  9991,2 52669  53.2146 165.3222 0001463 105.2849 254.8305 15.08847824 41172,6917.856,95.437,540.734,538.709,0.0
52669.0,STARLINK-3972,PAYLOAD,2023-02-08 13:25:36,15.08848296,0.000141,53.2144,165.0243,105.4413,254.6735,-0.00017415,-3.059e-05,0.0,0 STARLINK-3972,1 52669U 22053P   23039.55944446 -.00003059  00000-0 -17415-3 0  9998,2 52669  53.2144 165.0243 0001410 105.4413 254.6735 15.08848296 41181,6917.855,95.437,540.695,538.745,0.0
